[{"OBJECT_NAME":"STARLINK-36418","OBJECT_ID":"2026-005U","EPOCH":"2026-03-09T12:24:33.246144","MEAN_MOTION":15.27602228,"ECCENTRICITY":0.00018181,"INCLINATION":43.0021,"RA_OF_ASC_NODE":238.6486,"ARG_OF_PERICENTER":284.6926,"MEAN_ANOMALY":75.3724,"EPHEMERIS_TYPE":0,"CLASSIFICATION_TYPE":"U","NORAD_CAT_ID":67422,"ELEMENT_SET_NO":999,"REV_AT_EPOCH":867,"BSTAR":0.0009444374,"MEAN_MOTION_DOT":0.00025836,"MEAN_MOTION_DDOT":0},{"OBJECT_NAME":"FENGYUN 1C DEB","OBJECT_ID":"1999-025CCU","EPOCH":"2026-03-09T04:16:51.250080","MEAN_MOTION":14.7380712,"ECCENTRICITY":0.02770831,"INCLINATION":98.1363,"RA_OF_ASC_NODE":145.1449,"ARG_OF_PERICENTER":173.2574,"MEAN_ANOMALY":217.8544,"EPHEMERIS_TYPE":0,"CLASSIFICATION_TYPE":"U","NORAD_CAT_ID":31686,"ELEMENT_SET_NO":999,"REV_AT_EPOCH":99091,"BSTAR":0.001175879,"MEAN_MOTION_DOT":0.00014291,"MEAN_MOTION_DDOT":0}]
